{
    "links": {
        "self": "http://www.neowsapp.com/rest/v1/neo/3404527?api_key=iIulBulltgU6a56xZRHN4H3l9WmuAYTsLGpBGhQ2"
    },
    "id": "3404527",
    "neo_reference_id": "3404527",
    "name": "(2008 EM)",
    "designation": "2008 EM",
    "nasa_jpl_url": "http://ssd.jpl.nasa.gov/sbdb.cgi?sstr=3404527",
    "absolute_magnitude_h": 24.3,
    "estimated_diameter": {
        "kilometers": {
            "estimated_diameter_min": 0.0366906138,
            "estimated_diameter_max": 0.0820427065
        },
        "meters": {
            "estimated_diameter_min": 36.6906137531,
            "estimated_diameter_max": 82.0427064882
        },
        "miles": {
            "estimated_diameter_min": 0.0227984834,
            "estimated_diameter_max": 0.0509789586
        },
        "feet": {
            "estimated_diameter_min": 120.3760332259,
            "estimated_diameter_max": 269.1689931548
        }
    },
    "is_potentially_hazardous_asteroid": false,
    "close_approach_data": [
        {
            "close_approach_date": "2008-03-09",
            "close_approach_date_full": "2008-Mar-09 12:30",
            "epoch_date_close_approach": 1205065800000,
            "relative_velocity": {
                "kilometers_per_second": "13.6734445081",
                "kilometers_per_hour": "49224.4002290552",
                "miles_per_hour": "30586.1280201038"
            },
            "miss_distance": {
                "astronomical": "0.1142245088",
                "lunar": "44.4333339232",
                "kilometers": "17087743.218276256",
                "miles": "10617831.2804580928"
            },
            "orbiting_body": "Earth"
        },
        {
            "close_approach_date": "2008-09-01",
            "close_approach_date_full": "2008-Sep-01 12:52",
            "epoch_date_close_approach": 1220273520000,
            "relative_velocity": {
                "kilometers_per_second": "13.7817290007",
                "kilometers_per_hour": "49614.2244025657",
                "miles_per_hour": "30828.3496016942"
            },
            "miss_distance": {
                "astronomical": "0.1518546095",
                "lunar": "59.0714430955",
                "kilometers": "22717126.130881765",
                "miles": "14115767.620887757"
            },
            "orbiting_body": "Earth"
        },
        {
            "close_approach_date": "2199-03-11",
            "close_approach_date_full": "2199-Mar-11 07:44",
            "epoch_date_close_approach": 7232571840000,
            "relative_velocity": {
                "kilometers_per_second": "14.6108676411",
                "kilometers_per_hour": "52599.1235078336",
                "miles_per_hour": "32683.0498262981"
            },
            "miss_distance": {
                "astronomical": "0.1069412538",
                "lunar": "41.6001477282",
                "kilometers": "15998183.783609406",
                "miles": "9940810.4416295628"
            },
            "orbiting_body": "Earth"
        },
        {
            "close_approach_date": "2199-09-06",
            "close_approach_date_full": "2199-Sep-06 00:47",
            "epoch_date_close_approach": 7248012420000,
            "relative_velocity": {
                "kilometers_per_second": "13.2021886513",
                "kilometers_per_hour": "47527.8791445792",
                "miles_per_hour": "29531.9757940303"
            },
            "miss_distance": {
                "astronomical": "0.1824992876",
                "lunar": "70.9922228764",
                "kilometers": "27301504.701477412",
                "miles": "16964368.3732838056"
            },
            "orbiting_body": "Earth"
        }
    ],
    "orbital_data": {
        "orbit_id": "7",
        "orbit_determination_date": "2017-04-06 09:04:11",
        "first_observation_date": "2008-03-01",
        "last_observation_date": "2008-03-06",
        "data_arc_in_days": 5,
        "observations_used": 15,
        "orbit_uncertainty": "9",
        "minimum_orbit_intersection": ".0927792",
        "jupiter_tisserand_invariant": "5.344",
        "epoch_osculation": "2454528.5",
        "eccentricity": ".1476578640734556",
        "semi_major_axis": "1.154289552610705",
        "inclination": "26.19923611989801",
        "ascending_node_longitude": "345.4973940794632",
        "orbital_period": "452.9711831803428",
        "perihelion_distance": ".9838496227499033",
        "perihelion_argument": "256.1398596226433",
        "aphelion_distance": "1.324729482471506",
        "perihelion_time": "2454610.324608079622",
        "mean_anomaly": "294.969684601468",
        "mean_motion": ".7947525435777492",
        "equinox": "J2000",
        "orbit_class": {
            "orbit_class_type": "APO",
            "orbit_class_description": "Near-Earth asteroid orbits which cross the Earth’s orbit similar to that of 1862 Apollo",
            "orbit_class_range": "a (semi-major axis) > 1.0 AU; q (perihelion) < 1.017 AU"
        }
    },
    "is_sentry_object": false
}